STARLINK-3907           
1 52501U 22049BC  26068.32735819 -.00000716  00000+0 -26908-4 0  9994
2 52501  53.2181  50.5442 0001227  84.7519 275.3613 15.08831714212348
SEDNA-2                 
1 63153U 25009DQ  26068.79893845  .00008085  00000+0  49393-3 0  9990
2 63153  97.4615 144.8075 0010309  53.0260 307.1912 15.10492622 63116
